NORAD_CAT_ID,OBJECT_NAME,OBJECT_TYPE,EPOCH,MEAN_MOTION,ECCENTRICITY,INCLINATION,RA_OF_ASC_NODE,ARG_OF_PERICENTER,MEAN_ANOMALY,BSTAR,MEAN_MOTION_DOT,MEAN_MOTION_DDOT,TLE_LINE0,TLE_LINE1,TLE_LINE2,SEMIMAJOR_AXIS,PERIOD,APOGEE,PERIGEE,DECAYED
55274.0,STARLINK-5236,PAYLOAD,2024-01-22 20:39:10,14.98329812,0.0002649,70.0009,183.282,274.0253,86.0603,3.5247e-05,3.28e-06,0.0,0 STARLINK-5236,1 55274U 23010F   24022.86053264  .00000328  00000-0  35247-4 0  9991,2 55274  70.0009 183.2820 0002649 274.0253  86.0603 14.98329812 56910,6950.193,96.107,573.9,570.217,0.0
55274.0,STARLINK-5236,PAYLOAD,2024-01-23 20:41:10,14.98338516,0.0002335,70.0012,180.7579,269.9884,90.1007,-2.654e-05,-4.1e-06,0.0,0 STARLINK-5236,1 55274U 23010F   24023.86192696 -.00000410  00000-0 -26540-4 0  9995,2 55274  70.0012 180.7579 0002335 269.9884  90.1007 14.98338516 57064,6950.167,96.106,573.654,570.409,0.0
55274.0,STARLINK-5236,PAYLOAD,2024-01-24 14:18:39,14.983656,0.0002474,70.0015,178.9072,260.8218,99.2661,-0.00066338,-8.006e-05,0.0,0 STARLINK-5236,1 55274U 23010F   24024.59628840 -.00008006  00000-0 -66338-3 0  9998,2 55274  70.0015 178.9072 0002474 260.8218  99.2661 14.98365600 57171,6950.083,96.105,573.667,570.228,0.0
55274.0,STARLINK-5236,PAYLOAD,2024-01-24 19:07:04,14.98326002,0.0002547,70.0014,178.4019,268.5833,91.5035,-5.1144e-05,-7.03e-06,0.0,0 STARLINK-5236,1 55274U 23010F   24024.79657523 -.00000703  00000-0 -51144-4 0  9996,2 55274  70.0014 178.4019 0002547 268.5833  91.5035 14.98326002 56885,6950.205,96.107,573.84,570.3,0.0
55274.0,STARLINK-5236,PAYLOAD,2024-01-25 14:20:40,14.98330011,0.0002596,70.0015,176.3829,259.2479,100.8387,-5.2639e-05,-7.21e-06,0.0,0 STARLINK-5236,1 55274U 23010F   24025.59769250 -.00000721  00000-0 -52639-4 0  9996,2 55274  70.0015 176.3829 0002596 259.2479 100.8387 14.98330011 57328,6950.193,96.107,573.862,570.254,0.0
55274.0,STARLINK-5236,PAYLOAD,2024-01-25 19:09:04,14.983284,0.0002633,70.0014,175.878,260.521,99.5651,-6.8862e-05,-9.14e-06,0.0,0 STARLINK-5236,1 55274U 23010F   24025.79797418 -.00000914  00000-0 -68862-4 0  9994,2 55274  70.0014 175.8780 0002633 260.5210  99.5651 14.98328400 57032,6950.198,96.107,573.893,570.233,0.0
55274.0,STARLINK-5236,PAYLOAD,2024-01-26 14:22:41,14.98332011,0.0002903,70.0008,173.8567,267.1839,92.8988,6.7502e-05,7.13e-06,0.0,0 STARLINK-5236,1 55274U 23010F   24026.59908750  .00000713  00000-0  67502-4 0  9991,2 55274  70.0008 173.8567 0002903 267.1839  92.8988 14.98332011 57476,6950.187,96.107,574.069,570.034,0.0
55274.0,STARLINK-5236,PAYLOAD,2024-01-26 19:11:05,14.98334128,0.0002929,70.0007,173.3516,269.8018,90.2806,8.6371e-05,9.38e-06,0.0,0 STARLINK-5236,1 55274U 23010F   24026.79936537  .00000938  00000-0  86371-4 0  9991,2 55274  70.0007 173.3516 0002929 269.8018  90.2806 14.98334128 57180,6950.18,96.107,574.081,570.009,0.0
55274.0,STARLINK-5236,PAYLOAD,2024-01-27 12:48:34,14.98327943,0.0002884,70.001,171.5002,266.0463,94.0367,5.1063e-06,-3.2e-07,0.0,0 STARLINK-5236,1 55274U 23010F   24027.53373100 -.00000032  00000-0  51063-5 0  9992,2 55274  70.0010 171.5002 0002884 266.0463  94.0367 14.98327943 57290,6950.199,96.107,574.069,570.06,0.0
55274.0,STARLINK-5236,PAYLOAD,2024-01-27 14:24:42,14.98327774,0.0002887,70.001,171.3319,266.0102,94.0727,2.8123e-06,-5.9e-07,0.0,0 STARLINK-5236,1 55274U 23010F   24027.60049120 -.00000059  00000-0  28123-5 0  9992,2 55274  70.0010 171.3319 0002887 266.0102  94.0727 14.98327774 57621,6950.2,96.107,574.071,570.058,0.0
55274.0,STARLINK-5236,PAYLOAD,2024-01-27 19:13:06,14.98328541,0.0002892,70.0011,170.8272,266.3894,93.6935,8.7779e-06,1.2e-07,0.0,0 STARLINK-5236,1 55274U 23010F   24027.80077070  .00000012  00000-0  87779-5 0  9999,2 55274  70.0011 170.8272 0002892 266.3894  93.6935 14.98328541 57653,6950.197,96.107,574.072,570.052,0.0
55274.0,STARLINK-5236,PAYLOAD,2024-01-28 14:26:43,14.98329251,0.0002874,70.0012,168.8076,265.1832,94.8999,-8.3211e-05,-1.086e-05,0.0,0 STARLINK-5236,1 55274U 23010F   24028.60189291 -.00001086  00000-0 -83211-4 0  9997,2 55274  70.0012 168.8076 0002874 265.1832  94.8999 14.98329251 57777,6950.195,96.107,574.058,570.063,0.0
55274.0,STARLINK-5236,PAYLOAD,2024-01-28 19:15:07,14.98328028,0.0002905,70.0012,168.3028,266.1373,93.9454,-9.3023e-05,-1.203e-05,0.0,0 STARLINK-5236,1 55274U 23010F   24028.80217424 -.00001203  00000-0 -93023-4 0  9992,2 55274  70.0012 168.3028 0002905 266.1373  93.9454 14.98328028 57480,6950.199,96.107,574.083,570.045,0.0
55274.0,STARLINK-5236,PAYLOAD,2024-01-29 11:16:29,14.98317847,0.0002874,70.0015,166.6192,263.2365,96.8467,-8.8943e-05,-1.154e-05,0.0,0 STARLINK-5236,1 55274U 23010F   24029.46978325 -.00001154  00000-0 -88943-4 0  9999,2 55274  70.0015 166.6192 0002874 263.2365  96.8467 14.98317847 57584,6950.23,96.108,574.093,570.098,0.0
55274.0,STARLINK-5236,PAYLOAD,2024-01-30 11:18:29,14.98326526,0.0002608,70.0022,164.0946,264.7657,95.3205,9.0315e-05,9.85e-06,0.0,0 STARLINK-5236,1 55274U 23010F   24030.47117663  .00000985  00000-0  90315-4 0  9997,2 55274  70.0022 164.0946 0002608 264.7657  95.3205 14.98326526 57731,6950.204,96.107,573.881,570.256,0.0
55274.0,STARLINK-5236,PAYLOAD,2024-01-30 12:54:37,14.98326931,0.0002604,70.0022,163.9263,265.3361,94.75,9.4528e-05,1.035e-05,0.0,0 STARLINK-5236,1 55274U 23010F   24030.53793647  .00001035  00000-0  94528-4 0  9993,2 55274  70.0022 163.9263 0002604 265.3361  94.7500 14.98326931 58064,6950.202,96.107,573.877,570.258,0.0
55274.0,STARLINK-5236,PAYLOAD,2024-01-30 17:43:01,14.98330466,0.0002552,70.0023,163.4214,265.916,94.1707,0.00013316,1.496e-05,0.0,0 STARLINK-5236,1 55274U 23010F   24030.73821345  .00001496  00000-0  13316-3 0  9998,2 55274  70.0023 163.4214 0002552 265.9160  94.1707 14.98330466 58095,6950.191,96.107,573.83,570.283,0.0
55274.0,STARLINK-5236,PAYLOAD,2024-01-31 11:20:30,14.98332384,0.0002766,70.0013,161.5692,264.3822,95.7022,0.00012577,1.408e-05,0.0,0 STARLINK-5236,1 55274U 23010F   24031.47257088  .00001408  00000-0  12577-3 0  9998,2 55274  70.0013 161.5692 0002766 264.3822  95.7022 14.98332384 57882,6950.186,96.107,573.973,570.128,0.0
55274.0,STARLINK-5236,PAYLOAD,2024-02-01 11:22:31,14.98335108,0.0002997,70.001,159.0446,264.4379,95.6438,-7.0585e-05,-9.35e-06,0.0,0 STARLINK-5236,1 55274U 23010F   24032.47397234 -.00000935  00000-0 -70585-4 0  9997,2 55274  70.0010 159.0446 0002997 264.4379  95.6438 14.98335108 58037,6950.177,96.107,574.125,569.959,0.0
55274.0,STARLINK-5236,PAYLOAD,2024-02-01 17:47:03,14.9833465,0.0003105,70.0011,158.3714,268.1867,91.8936,-7.8229e-05,-1.026e-05,0.0,0 STARLINK-5236,1 55274U 23010F   24032.74101212 -.00001026  00000-0 -78229-4 0  9991,2 55274  70.0011 158.3714 0003105 268.1867  91.8936 14.98334650 58394,6950.179,96.107,574.202,569.885,0.0
55274.0,STARLINK-5236,PAYLOAD,2024-02-02 11:24:32,14.98329793,0.0003288,70.0005,156.5189,271.1751,88.9032,-3.6111e-05,-5.24e-06,0.0,0 STARLINK-5236,1 55274U 23010F   24033.47537180 -.00000524  00000-0 -36111-4 0  9995,2 55274  70.0005 156.5189 0003288 271.1751  88.9032 14.98329793 58184,6950.194,96.107,574.344,569.773,0.0
55274.0,STARLINK-5236,PAYLOAD,2024-02-02 14:36:48,14.98328835,0.000301,70.0009,156.1821,270.9495,89.1319,-2.0948e-05,-3.43e-06,0.0,0 STARLINK-5236,1 55274U 23010F   24033.60889223 -.00000343  00000-0 -20948-4 0  9998,2 55274  70.0009 156.1821 0003010 270.9495  89.1319 14.98328835 58527,6950.196,96.107,574.154,569.969,0.0
55274.0,STARLINK-5236,PAYLOAD,2024-02-02 17:49:04,14.98333859,0.0003205,70.0006,155.8458,270.2585,89.8206,6.9396e-06,-1e-07,0.0,0 STARLINK-5236,1 55274U 23010F   24033.74240764 -.00000010  00000-0  69396-5 0  9995,2 55274  70.0006 155.8458 0003205 270.2585  89.8206 14.98333859 58541,6950.181,96.107,574.273,569.818,0.0
55274.0,STARLINK-5236,PAYLOAD,2024-02-03 11:26:33,14.98322048,0.0003055,70.0011,153.9943,270.638,89.4429,1.3913e-05,7.3e-07,0.0,0 STARLINK-5236,1 55274U 23010F   24034.47677472  .00000073  00000-0  13913-4 0  9997,2 55274  70.0011 153.9943 0003055 270.6380  89.4429 14.98322048 58333,6950.217,96.108,574.206,569.959,0.0
55274.0,STARLINK-5236,PAYLOAD,2024-02-03 13:02:41,14.98324102,0.0002735,70.001,153.8256,258.8908,101.1944,-2.034e-05,-3.36e-06,0.0,0 STARLINK-5236,1 55274U 23010F   24034.54353452 -.00000336  00000-0 -20340-4 0  9990,2 55274  70.0010 153.8256 0002735 258.8908 101.1944 14.98324102 58669,6950.211,96.107,573.977,570.175,0.0
55274.0,STARLINK-5236,PAYLOAD,2024-02-03 17:51:05,14.9832761,0.0002745,70.0011,153.321,259.7091,100.3759,1.9458e-05,1.39e-06,0.0,0 STARLINK-5236,1 55274U 23010F   24034.74381167  .00000139  00000-0  19458-4 0  9993,2 55274  70.0011 153.3210 0002745 259.7091 100.3759 14.98327610 58379,6950.2,96.107,573.973,570.157,0.0
55274.0,STARLINK-5236,PAYLOAD,2024-02-04 14:40:49,14.98335323,0.0002971,70.0013,151.1339,264.8767,95.2053,5.9529e-05,6.17e-06,0.0,0 STARLINK-5236,1 55274U 23010F   24035.61168410  .00000617  00000-0  59529-4 0  9998,2 55274  70.0013 151.1339 0002971 264.8767  95.2053 14.98335323 58826,6950.176,96.107,574.106,569.977,0.0
55274.0,STARLINK-5236,PAYLOAD,2024-02-04 17:53:05,14.98337818,0.0002951,70.0015,150.7975,264.8942,95.188,8.5311e-05,9.25e-06,0.0,0 STARLINK-5236,1 55274U 23010F   24035.74520125  .00000925  00000-0  85311-4 0  9997,2 55274  70.0015 150.7975 0002951 264.8942  95.1880 14.98337818 58527,6950.169,96.106,574.085,569.983,0.0
55274.0,STARLINK-5236,PAYLOAD,2024-02-05 11:30:34,14.9832769,0.0002825,70.0018,148.9463,264.4727,95.611,1.9029e-05,1.34e-06,0.0,0 STARLINK-5236,1 55274U 23010F   24036.47956844  .00000134  00000-0  19029-4 0  9994,2 55274  70.0018 148.9463 0002825 264.4727  95.6110 14.98327690 58638,6950.2,96.107,574.028,570.102,0.0
55274.0,STARLINK-5236,PAYLOAD,2024-02-05 14:42:50,14.98328795,0.0002791,70.0018,148.6096,263.7856,96.2985,3.1601e-05,2.84e-06,0.0,0 STARLINK-5236,1 55274U 23010F   24036.61308740  .00000284  00000-0  31601-4 0  9992,2 55274  70.0018 148.6096 0002791 263.7856  96.2985 14.98328795 58975,6950.197,96.107,574.001,570.122,0.0
